CCSDS_OMM_VERS = 2.0
CREATION_DATE  = 
ORIGINATOR     = 

OBJECT_NAME    = TWILIGHT B
OBJECT_ID      = 2026-004B
CENTER_NAME    = EARTH
REF_FRAME      = TEME
TIME_SYSTEM    = UTC
MEAN_ELEMENT_THEORY = SGP/SGP4

EPOCH          = 2026-01-31T01:27:21.735936
MEAN_MOTION    = 14.87100060
ECCENTRICITY   = .0007631
INCLINATION    = 97.7988
RA_OF_ASC_NODE = 31.8787
ARG_OF_PERICENTER = 219.3123
MEAN_ANOMALY   = 140.7540

EPHEMERIS_TYPE = 0
CLASSIFICATION_TYPE = U
NORAD_CAT_ID   = 67364
ELEMENT_SET_NO = 999
REV_AT_EPOCH   = 290
BSTAR          = .55873E-3
MEAN_MOTION_DOT = .4966E-4
MEAN_MOTION_DDOT = 0

CCSDS_OMM_VERS = 2.0
CREATION_DATE  = 
ORIGINATOR     = 

OBJECT_NAME    = TWILIGHT C
OBJECT_ID      = 2026-004C
CENTER_NAME    = EARTH
REF_FRAME      = TEME
TIME_SYSTEM    = UTC
MEAN_ELEMENT_THEORY = SGP/SGP4

EPOCH          = 2026-01-31T01:26:57.732288
MEAN_MOTION    = 14.87117159
ECCENTRICITY   = .0007236
INCLINATION    = 97.7964
RA_OF_ASC_NODE = 31.8767
ARG_OF_PERICENTER = 225.1795
MEAN_ANOMALY   = 134.8833

EPHEMERIS_TYPE = 0
CLASSIFICATION_TYPE = U
NORAD_CAT_ID   = 67365
ELEMENT_SET_NO = 999
REV_AT_EPOCH   = 290
BSTAR          = .60644E-3
MEAN_MOTION_DOT = .5397E-4
MEAN_MOTION_DDOT = 0

CCSDS_OMM_VERS = 2.0
CREATION_DATE  = 
ORIGINATOR     = 

OBJECT_NAME    = TWILIGHT D
OBJECT_ID      = 2026-004D
CENTER_NAME    = EARTH
REF_FRAME      = TEME
TIME_SYSTEM    = UTC
MEAN_ELEMENT_THEORY = SGP/SGP4

EPOCH          = 2026-01-31T03:03:21.586752
MEAN_MOTION    = 14.87107445
ECCENTRICITY   = .0007784
INCLINATION    = 97.8022
RA_OF_ASC_NODE = 31.9489
ARG_OF_PERICENTER = 212.3369
MEAN_ANOMALY   = 147.7371

EPHEMERIS_TYPE = 0
CLASSIFICATION_TYPE = U
NORAD_CAT_ID   = 67366
ELEMENT_SET_NO = 999
REV_AT_EPOCH   = 291
BSTAR          = .36436E-3
MEAN_MOTION_DOT = .3219E-4
MEAN_MOTION_DDOT = 0

CCSDS_OMM_VERS = 2.0
CREATION_DATE  = 
ORIGINATOR     = 

OBJECT_NAME    = TWILIGHT E
OBJECT_ID      = 2026-004E
CENTER_NAME    = EARTH
REF_FRAME      = TEME
TIME_SYSTEM    = UTC
MEAN_ELEMENT_THEORY = SGP/SGP4

EPOCH          = 2026-01-31T03:01:43.690368
MEAN_MOTION    = 14.87243006
ECCENTRICITY   = .0006701
INCLINATION    = 97.7952
RA_OF_ASC_NODE = 31.9435
ARG_OF_PERICENTER = 226.6748
MEAN_ANOMALY   = 133.3910

EPHEMERIS_TYPE = 0
CLASSIFICATION_TYPE = U
NORAD_CAT_ID   = 67367
ELEMENT_SET_NO = 999
REV_AT_EPOCH   = 291
BSTAR          = .58463E-3
MEAN_MOTION_DOT = .5216E-4
MEAN_MOTION_DDOT = 0

CCSDS_OMM_VERS = 2.0
CREATION_DATE  = 
ORIGINATOR     = 

OBJECT_NAME    = TWILIGHT F
OBJECT_ID      = 2026-004F
CENTER_NAME    = EARTH
REF_FRAME      = TEME
TIME_SYSTEM    = UTC
MEAN_ELEMENT_THEORY = SGP/SGP4

EPOCH          = 2026-01-31T03:00:59.413824
MEAN_MOTION    = 14.87271569
ECCENTRICITY   = .0007157
INCLINATION    = 97.8013
RA_OF_ASC_NODE = 31.9507
ARG_OF_PERICENTER = 214.1593
MEAN_ANOMALY   = 145.9164

EPHEMERIS_TYPE = 0
CLASSIFICATION_TYPE = U
NORAD_CAT_ID   = 67368
ELEMENT_SET_NO = 999
REV_AT_EPOCH   = 291
BSTAR          = .53182E-3
MEAN_MOTION_DOT = .4744E-4
MEAN_MOTION_DDOT = 0

CCSDS_OMM_VERS = 2.0
CREATION_DATE  = 
ORIGINATOR     = 

OBJECT_NAME    = TWILIGHT G
OBJECT_ID      = 2026-004G
CENTER_NAME    = EARTH
REF_FRAME      = TEME
TIME_SYSTEM    = UTC
MEAN_ELEMENT_THEORY = SGP/SGP4

EPOCH          = 2026-01-31T03:00:00.190080
MEAN_MOTION    = 14.87259195
ECCENTRICITY   = .0006127
INCLINATION    = 97.7945
RA_OF_ASC_NODE = 31.9443
ARG_OF_PERICENTER = 228.5864
MEAN_ANOMALY   = 131.4826

EPHEMERIS_TYPE = 0
CLASSIFICATION_TYPE = U
NORAD_CAT_ID   = 67369
ELEMENT_SET_NO = 999
REV_AT_EPOCH   = 291
BSTAR          = .28717E-3
MEAN_MOTION_DOT = .2535E-4
MEAN_MOTION_DDOT = 0

CCSDS_OMM_VERS = 2.0
CREATION_DATE  = 
ORIGINATOR     = 

OBJECT_NAME    = TWILIGHT H
OBJECT_ID      = 2026-004H
CENTER_NAME    = EARTH
REF_FRAME      = TEME
TIME_SYSTEM    = UTC
MEAN_ELEMENT_THEORY = SGP/SGP4

EPOCH          = 2026-01-31T02:58:52.375584
MEAN_MOTION    = 14.87377617
ECCENTRICITY   = .0005815
INCLINATION    = 97.7942
RA_OF_ASC_NODE = 31.9448
ARG_OF_PERICENTER = 228.4756
MEAN_ANOMALY   = 131.5962

EPHEMERIS_TYPE = 0
CLASSIFICATION_TYPE = U
NORAD_CAT_ID   = 67370
ELEMENT_SET_NO = 999
REV_AT_EPOCH   = 291
BSTAR          = .57274E-3
MEAN_MOTION_DOT = .5126E-4
MEAN_MOTION_DDOT = 0

CCSDS_OMM_VERS = 2.0
CREATION_DATE  = 
ORIGINATOR     = 

OBJECT_NAME    = TWILIGHT J
OBJECT_ID      = 2026-004J
CENTER_NAME    = EARTH
REF_FRAME      = TEME
TIME_SYSTEM    = UTC
MEAN_ELEMENT_THEORY = SGP/SGP4

EPOCH          = 2026-01-31T02:52:22.452384
MEAN_MOTION    = 14.87777612
ECCENTRICITY   = .0005059
INCLINATION    = 97.7983
RA_OF_ASC_NODE = 31.9549
ARG_OF_PERICENTER = 210.8318
MEAN_ANOMALY   = 149.2602

EPHEMERIS_TYPE = 0
CLASSIFICATION_TYPE = U
NORAD_CAT_ID   = 67371
ELEMENT_SET_NO = 999
REV_AT_EPOCH   = 291
BSTAR          = .68E-3
MEAN_MOTION_DOT = .6157E-4
MEAN_MOTION_DDOT = 0

CCSDS_OMM_VERS = 2.0
CREATION_DATE  = 
ORIGINATOR     = 

OBJECT_NAME    = TWILIGHT K
OBJECT_ID      = 2026-004K
CENTER_NAME    = EARTH
REF_FRAME      = TEME
TIME_SYSTEM    = UTC
MEAN_ELEMENT_THEORY = SGP/SGP4

EPOCH          = 2026-01-31T02:46:48.455040
MEAN_MOTION    = 14.87956552
ECCENTRICITY   = .0003391
INCLINATION    = 97.7963
RA_OF_ASC_NODE = 31.9567
ARG_OF_PERICENTER = 203.8903
MEAN_ANOMALY   = 156.2157

EPHEMERIS_TYPE = 0
CLASSIFICATION_TYPE = U
NORAD_CAT_ID   = 67372
ELEMENT_SET_NO = 999
REV_AT_EPOCH   = 291
BSTAR          = .23587E-3
MEAN_MOTION_DOT = .2108E-4
MEAN_MOTION_DDOT = 0

CCSDS_OMM_VERS = 2.0
CREATION_DATE  = 
ORIGINATOR     = 

OBJECT_NAME    = TWILIGHT L
OBJECT_ID      = 2026-004L
CENTER_NAME    = EARTH
REF_FRAME      = TEME
TIME_SYSTEM    = UTC
MEAN_ELEMENT_THEORY = SGP/SGP4

EPOCH          = 2026-01-31T02:54:13.366656
MEAN_MOTION    = 14.87560880
ECCENTRICITY   = .0004968
INCLINATION    = 97.7976
RA_OF_ASC_NODE = 31.9523
ARG_OF_PERICENTER = 216.7085
MEAN_ANOMALY   = 143.3792

EPHEMERIS_TYPE = 0
CLASSIFICATION_TYPE = U
NORAD_CAT_ID   = 67373
ELEMENT_SET_NO = 999
REV_AT_EPOCH   = 291
BSTAR          = .24639E-3
MEAN_MOTION_DOT = .2183E-4
MEAN_MOTION_DDOT = 0

CCSDS_OMM_VERS = 2.0
CREATION_DATE  = 
ORIGINATOR     = 

OBJECT_NAME    = TWILIGHT M
OBJECT_ID      = 2026-004M
CENTER_NAME    = EARTH
REF_FRAME      = TEME
TIME_SYSTEM    = UTC
MEAN_ELEMENT_THEORY = SGP/SGP4

EPOCH          = 2026-01-31T02:48:03.140064
MEAN_MOTION    = 14.87914610
ECCENTRICITY   = .0003676
INCLINATION    = 97.7962
RA_OF_ASC_NODE = 31.9543
ARG_OF_PERICENTER = 204.7638
MEAN_ANOMALY   = 155.3403

EPHEMERIS_TYPE = 0
CLASSIFICATION_TYPE = U
NORAD_CAT_ID   = 67374
ELEMENT_SET_NO = 999
REV_AT_EPOCH   = 291
BSTAR          = .29058E-3
MEAN_MOTION_DOT = .2607E-4
MEAN_MOTION_DDOT = 0

CCSDS_OMM_VERS = 2.0
CREATION_DATE  = 
ORIGINATOR     = 

OBJECT_NAME    = TWILIGHT N
OBJECT_ID      = 2026-004N
CENTER_NAME    = EARTH
REF_FRAME      = TEME
TIME_SYSTEM    = UTC
MEAN_ELEMENT_THEORY = SGP/SGP4

EPOCH          = 2026-01-31T02:47:32.714304
MEAN_MOTION    = 14.87941563
ECCENTRICITY   = .0004264
INCLINATION    = 97.7998
RA_OF_ASC_NODE = 31.9621
ARG_OF_PERICENTER = 199.7128
MEAN_ANOMALY   = 160.3924

EPHEMERIS_TYPE = 0
CLASSIFICATION_TYPE = U
NORAD_CAT_ID   = 67375
ELEMENT_SET_NO = 999
REV_AT_EPOCH   = 291
BSTAR          = .29735E-3
MEAN_MOTION_DOT = .2671E-4
MEAN_MOTION_DDOT = 0

