TWILIGHT B              
1 67364U 26004B   26031.06066824  .00004966  00000+0  55873-3 0  9997
2 67364  97.7988  31.8787 0007631 219.3123 140.7540 14.87100060  2907
TWILIGHT C              
1 67365U 26004C   26031.06039042  .00005397  00000+0  60644-3 0  9991
2 67365  97.7964  31.8767 0007236 225.1795 134.8833 14.87117159  2907
TWILIGHT D              
1 67366U 26004D   26031.12733318  .00003219  00000+0  36436-3 0  9999
2 67366  97.8022  31.9489 0007784 212.3369 147.7371 14.87107445  2917
TWILIGHT E              
1 67367U 26004E   26031.12620012  .00005216  00000+0  58463-3 0  9999
2 67367  97.7952  31.9435 0006701 226.6748 133.3910 14.87243006  2911
TWILIGHT F              
1 67368U 26004F   26031.12568766  .00004744  00000+0  53182-3 0  9995
2 67368  97.8013  31.9507 0007157 214.1593 145.9164 14.87271569  2912
TWILIGHT G              
1 67369U 26004G   26031.12500220  .00002535  00000+0  28717-3 0  9999
2 67369  97.7945  31.9443 0006127 228.5864 131.4826 14.87259195  2917
TWILIGHT H              
1 67370U 26004H   26031.12421731  .00005126  00000+0  57274-3 0  9999
2 67370  97.7942  31.9448 0005815 228.4756 131.5962 14.87377617  2915
TWILIGHT J              
1 67371U 26004J   26031.11970431  .00006157  00000+0  68000-3 0  9999
2 67371  97.7983  31.9549 0005059 210.8318 149.2602 14.87777612  2918
TWILIGHT K              
1 67372U 26004K   26031.11583860  .00002108  00000+0  23587-3 0  9999
2 67372  97.7963  31.9567 0003391 203.8903 156.2157 14.87956552  2911
TWILIGHT L              
1 67373U 26004L   26031.12098804  .00002183  00000+0  24639-3 0  9992
2 67373  97.7976  31.9523 0004968 216.7085 143.3792 14.87560880  2910
TWILIGHT M              
1 67374U 26004M   26031.11670301  .00002607  00000+0  29058-3 0  9991
2 67374  97.7962  31.9543 0003676 204.7638 155.3403 14.87914610  2910
TWILIGHT N              
1 67375U 26004N   26031.11635086  .00002671  00000+0  29735-3 0  9996
2 67375  97.7998  31.9621 0004264 199.7128 160.3924 14.87941563  2919
